IRIDIUM 170             
1 43930U 19002J   24180.40666270  .00001660  00000+0  25921-3 0  9991
2 43930  86.6094 293.9958 0002219  93.0637 267.0834 14.72266884293508
IRIDIUM 181             
1 56726U 23068S   24180.89089673  .00000723  00000+0  20772-3 0  9992
2 56726  86.8642 348.0667 0002448  93.7519 266.3963 14.43573986 58826
IRIDIUM 177             
1 56727U 23068T   24180.85268804  .00001987  00000+0  25795-3 0  9997
2 56727  86.1977 309.8204 0002666  84.4750 275.6775 14.80239373 60107
IRIDIUM 174             
1 56728U 23068U   24180.84725988  .00003111  00000+0  40582-3 0  9990
2 56728  86.1983 309.9277 0002423  96.8342 263.3155 14.80235110 60102
IRIDIUM 178             
1 56729U 23068V   24180.90944537  .00003103  00000+0  40494-3 0  9994
2 56729  86.5789 327.9192 0002117  96.5283 263.6179 14.80234416 60116
IRIDIUM 179             
1 56730U 23068W   24180.36320210  .00001042  00000+0  13359-3 0  9992
2 56730  86.6795 332.4275 0002206  98.6077 261.5395 14.80251747 60036
